{
  "norad_id": 68404,
  "name": "STARLINK-37188",
  "history": [
    {
      "epoch": "2026-04-02T18:00:01.999296Z",
      "apogee_km": 272.5321643168636,
      "perigee_km": 270.40429064407,
      "latitude_deg": -16.280606515824573,
      "longitude_deg": -49.666594495390356,
      "height_km": 278.81868751887936,
      "semi_major_axis_km": 6649.605227480467,
      "eccentricity": 0.00016,
      "inclination_deg": 97.2811,
      "raan_deg": 233.5623,
      "arg_perigee_deg": 68.4936,
      "mean_anomaly_deg": 127.6824,
      "mean_motion_rev_day": 16.01065014
    }
  ]
}