{"fetched_at":"2026-04-04T02:03:33Z","count":15623,"tles":[{"name":"STARLINK-37188","line1":"1 68404U 26063AA  26092.75002315 -.01863513  10549-2 -34952-2 0  9996","line2":"2 68404  97.2811 233.5623 0001599  68.4936 127.6824 16.01065014  2327","category":"Starlink"}]}